[{"OBJECT_NAME":"TELEOS-2","OBJECT_ID":"2023-057C","EPOCH":"2026-03-08T15:30:11.035584","MEAN_MOTION":14.96380118,"ECCENTRICITY":8.033e-5,"INCLINATION":9.9874,"RA_OF_ASC_NODE":216.2411,"ARG_OF_PERICENTER":295.2771,"MEAN_ANOMALY":64.7359,"EPHEMERIS_TYPE":0,"CLASSIFICATION_TYPE":"U","NORAD_CAT_ID":56310,"ELEMENT_SET_NO":999,"REV_AT_EPOCH":15771,"BSTAR":1.5043378e-5,"MEAN_MOTION_DOT":8.63e-6,"MEAN_MOTION_DDOT":0},{"OBJECT_NAME":"STARLINK-34036","OBJECT_ID":"2025-098V","EPOCH":"2026-03-09T22:02:25.789056","MEAN_MOTION":14.98331305,"ECCENTRICITY":0.00026518,"INCLINATION":70.0004,"RA_OF_ASC_NODE":274.0016,"ARG_OF_PERICENTER":272.7085,"MEAN_ANOMALY":87.3771,"EPHEMERIS_TYPE":0,"CLASSIFICATION_TYPE":"U","NORAD_CAT_ID":63945,"ELEMENT_SET_NO":999,"REV_AT_EPOCH":4658,"BSTAR":0.00023308969,"MEAN_MOTION_DOT":2.689e-5,"MEAN_MOTION_DDOT":0}]
